STARLINK-31192          
1 58794U 24012H   26068.30699284 -.00004968  00000+0 -17110-3 0  9996
2 58794  43.0023 167.7303 0001036 197.5270 162.5546 15.27584226121178
TRANSPORTER-14 OBJECT AC
1 64554U 25135AC  26068.82113864  .00024574  00000+0  93234-3 0  9990
2 64554  97.4518 185.7428 0001008 268.0523  92.0600 15.26845403 39827
